HULIANWANG DIGUI-81     
1 65313U 25187J   26065.80970360 -.00000078  00000+0  98956-4 0  9999
2 65313  50.0057 213.0056 0001063 141.7703 218.3245 13.29341553 26095
HULIANWANG DIGUI-82     
1 65817U 25220A   26065.79666080  .00000028  00000+0  30710-4 0  9993
2 65817  86.4897  78.4428 0002275  99.5872 260.5519 13.24421936 21365
HULIANWANG DIGUI-83     
1 65818U 25220B   26065.78915629  .00000022  00000+0  16792-4 0  9997
2 65818  86.4920  78.4759 0002268  99.4873 260.6518 13.24421140 21369
HULIANWANG DIGUI-84     
1 65819U 25220C   26065.78157389  .00000013  00000+0 -43777-5 0  9994
2 65819  86.4857  78.3686 0002259  99.0148 261.1242 13.24421563 21367
HULIANWANG DIGUI-85     
1 65820U 25220D   26065.84952021  .00000021  00000+0  15522-4 0  9993
2 65820  86.4918  78.4406 0002257 100.1559 259.9829 13.24422086 21374
HULIANWANG DIGUI-86     
1 65821U 25220E   26065.84205472  .00000044  00000+0  67278-4 0  9995
2 65821  86.4897  78.4015 0002252  99.6323 260.5066 13.24420979 21373
HULIANWANG DIGUI-87     
1 65995U 25231A   26065.77093390 -.00000070  00000+0  11616-3 0  9999
2 65995  49.9992 183.1918 0000616 189.8108 170.2752 13.29330372 19262
HULIANWANG DIGUI-88     
1 65996U 25231B   26065.77931066 -.00000077  00000+0  10179-3 0  9991
2 65996  49.9978 183.2215 0000636 195.2711 164.8142 13.29329406 19269
HULIANWANG DIGUI-89     
1 65997U 25231C   26065.61222006 -.00000077  00000+0  10222-3 0  9991
2 65997  49.9956 183.6479 0000642 195.3913 164.6940 13.29330009 19247
HULIANWANG DIGUI-90     
1 65998U 25231D   26065.37832862 -.00000082  00000+0  90873-4 0  9999
2 65998  49.9984 184.4470 0000611 194.6846 165.4008 13.29330168 19219
HULIANWANG DIGUI-91     
1 65999U 25231E   26065.59551481 -.00000080  00000+0  95804-4 0  9996
2 65999  50.0004 183.6189 0000630 194.8317 165.2536 13.29330165 19244
HULIANWANG DIGUI-92     
1 66000U 25231F   26065.81268855 -.00000071  00000+0  11333-3 0  9999
2 66000  50.0045 182.8121 0000629 195.9678 164.1175 13.29330746 19275
HULIANWANG DIGUI-93     
1 66001U 25231G   26065.79601670 -.00000073  00000+0  11064-3 0  9996
2 66001  50.0013 182.6920 0000617 196.1940 163.8913 13.29329819 19273
HULIANWANG DIGUI-94     
1 66002U 25231H   26065.80433681 -.00000072  00000+0  11290-3 0  9994
2 66002  50.0052 182.7803 0000634 196.8775 163.2076 13.29330992 19278
HULIANWANG DIGUI-95     
1 66003U 25231J   26065.78781181 -.00000076  00000+0  10402-3 0  9991
2 66003  50.0024 182.6636 0000635 193.5633 166.5222 13.29325885 19273
HULIANWANG DIGUI-96     
1 66412U 25258A   26065.36021380 -.00000062  00000+0  13289-3 0  9997
2 66412  50.0048 304.4314 0000400 100.2884 259.8033 13.29331550 16058
