[{"OBJECT_NAME":"HULIANWANG DIGUI-81","OBJECT_ID":"2025-187J","EPOCH":"2026-03-06T19:25:58.391040","MEAN_MOTION":13.29341553,"ECCENTRICITY":0.0001063,"INCLINATION":50.0057,"RA_OF_ASC_NODE":213.0056,"ARG_OF_PERICENTER":141.7703,"MEAN_ANOMALY":218.3245,"EPHEMERIS_TYPE":0,"CLASSIFICATION_TYPE":"U","NORAD_CAT_ID":65313,"ELEMENT_SET_NO":999,"REV_AT_EPOCH":2609,"BSTAR":9.8956e-5,"MEAN_MOTION_DOT":-7.8e-7,"MEAN_MOTION_DDOT":0},{"OBJECT_NAME":"HULIANWANG DIGUI-82","OBJECT_ID":"2025-220A","EPOCH":"2026-03-06T19:07:11.493120","MEAN_MOTION":13.24421936,"ECCENTRICITY":0.0002275,"INCLINATION":86.4897,"RA_OF_ASC_NODE":78.4428,"ARG_OF_PERICENTER":99.5872,"MEAN_ANOMALY":260.5519,"EPHEMERIS_TYPE":0,"CLASSIFICATION_TYPE":"U","NORAD_CAT_ID":65817,"ELEMENT_SET_NO":999,"REV_AT_EPOCH":2136,"BSTAR":3.071e-5,"MEAN_MOTION_DOT":2.8e-7,"MEAN_MOTION_DDOT":0},{"OBJECT_NAME":"HULIANWANG DIGUI-83","OBJECT_ID":"2025-220B","EPOCH":"2026-03-06T18:56:23.103456","MEAN_MOTION":13.2442114,"ECCENTRICITY":0.0002268,"INCLINATION":86.492,"RA_OF_ASC_NODE":78.4759,"ARG_OF_PERICENTER":99.4873,"MEAN_ANOMALY":260.6518,"EPHEMERIS_TYPE":0,"CLASSIFICATION_TYPE":"U","NORAD_CAT_ID":65818,"ELEMENT_SET_NO":999,"REV_AT_EPOCH":2136,"BSTAR":1.6792e-5,"MEAN_MOTION_DOT":2.2e-7,"MEAN_MOTION_DDOT":0},{"OBJECT_NAME":"HULIANWANG DIGUI-84","OBJECT_ID":"2025-220C","EPOCH":"2026-03-06T18:45:27.984096","MEAN_MOTION":13.24421563,"ECCENTRICITY":0.0002259,"INCLINATION":86.4857,"RA_OF_ASC_NODE":78.3686,"ARG_OF_PERICENTER":99.0148,"MEAN_ANOMALY":261.1242,"EPHEMERIS_TYPE":0,"CLASSIFICATION_TYPE":"U","NORAD_CAT_ID":65819,"ELEMENT_SET_NO":999,"REV_AT_EPOCH":2136,"BSTAR":-4.3777e-6,"MEAN_MOTION_DOT":1.3e-7,"MEAN_MOTION_DDOT":0},{"OBJECT_NAME":"HULIANWANG DIGUI-85","OBJECT_ID":"2025-220D","EPOCH":"2026-03-06T20:23:18.546144","MEAN_MOTION":13.24422086,"ECCENTRICITY":0.0002257,"INCLINATION":86.4918,"RA_OF_ASC_NODE":78.4406,"ARG_OF_PERICENTER":100.1559,"MEAN_ANOMALY":259.9829,"EPHEMERIS_TYPE":0,"CLASSIFICATION_TYPE":"U","NORAD_CAT_ID":65820,"ELEMENT_SET_NO":999,"REV_AT_EPOCH":2137,"BSTAR":1.5522e-5,"MEAN_MOTION_DOT":2.1e-7,"MEAN_MOTION_DDOT":0},{"OBJECT_NAME":"HULIANWANG DIGUI-86","OBJECT_ID":"2025-220E","EPOCH":"2026-03-06T20:12:33.527808","MEAN_MOTION":13.24420979,"ECCENTRICITY":0.0002252,"INCLINATION":86.4897,"RA_OF_ASC_NODE":78.4015,"ARG_OF_PERICENTER":99.6323,"MEAN_ANOMALY":260.5066,"EPHEMERIS_TYPE":0,"CLASSIFICATION_TYPE":"U","NORAD_CAT_ID":65821,"ELEMENT_SET_NO":999,"REV_AT_EPOCH":2137,"BSTAR":6.7278e-5,"MEAN_MOTION_DOT":4.4e-7,"MEAN_MOTION_DDOT":0},{"OBJECT_NAME":"HULIANWANG DIGUI-87","OBJECT_ID":"2025-231A","EPOCH":"2026-03-06T18:30:08.688960","MEAN_MOTION":13.29330372,"ECCENTRICITY":6.16e-5,"INCLINATION":49.9992,"RA_OF_ASC_NODE":183.1918,"ARG_OF_PERICENTER":189.8108,"MEAN_ANOMALY":170.2752,"EPHEMERIS_TYPE":0,"CLASSIFICATION_TYPE":"U","NORAD_CAT_ID":65995,"ELEMENT_SET_NO":999,"REV_AT_EPOCH":1926,"BSTAR":0.00011616,"MEAN_MOTION_DOT":-7.0e-7,"MEAN_MOTION_DDOT":0},{"OBJECT_NAME":"HULIANWANG DIGUI-88","OBJECT_ID":"2025-231B","EPOCH":"2026-03-06T18:42:12.441024","MEAN_MOTION":13.29329406,"ECCENTRICITY":6.36e-5,"INCLINATION":49.9978,"RA_OF_ASC_NODE":183.2215,"ARG_OF_PERICENTER":195.2711,"MEAN_ANOMALY":164.8142,"EPHEMERIS_TYPE":0,"CLASSIFICATION_TYPE":"U","NORAD_CAT_ID":65996,"ELEMENT_SET_NO":999,"REV_AT_EPOCH":1926,"BSTAR":0.00010179,"MEAN_MOTION_DOT":-7.7e-7,"MEAN_MOTION_DDOT":0},{"OBJECT_NAME":"HULIANWANG DIGUI-89","OBJECT_ID":"2025-231C","EPOCH":"2026-03-06T14:41:35.813184","MEAN_MOTION":13.29330009,"ECCENTRICITY":6.422e-5,"INCLINATION":49.9956,"RA_OF_ASC_NODE":183.6479,"ARG_OF_PERICENTER":195.3913,"MEAN_ANOMALY":164.694,"EPHEMERIS_TYPE":0,"CLASSIFICATION_TYPE":"U","NORAD_CAT_ID":65997,"ELEMENT_SET_NO":999,"REV_AT_EPOCH":1924,"BSTAR":0.00010222039,"MEAN_MOTION_DOT":-7.7e-7,"MEAN_MOTION_DDOT":0},{"OBJECT_NAME":"HULIANWANG DIGUI-90","OBJECT_ID":"2025-231D","EPOCH":"2026-03-06T09:04:47.592768","MEAN_MOTION":13.29330168,"ECCENTRICITY":6.118e-5,"INCLINATION":49.9984,"RA_OF_ASC_NODE":184.447,"ARG_OF_PERICENTER":194.6846,"MEAN_ANOMALY":165.4008,"EPHEMERIS_TYPE":0,"CLASSIFICATION_TYPE":"U","NORAD_CAT_ID":65998,"ELEMENT_SET_NO":999,"REV_AT_EPOCH":1921,"BSTAR":9.0873147e-5,"MEAN_MOTION_DOT":-8.2e-7,"MEAN_MOTION_DDOT":0},{"OBJECT_NAME":"HULIANWANG DIGUI-91","OBJECT_ID":"2025-231E","EPOCH":"2026-03-06T14:17:32.479584","MEAN_MOTION":13.29330165,"ECCENTRICITY":6.301e-5,"INCLINATION":50.0004,"RA_OF_ASC_NODE":183.6189,"ARG_OF_PERICENTER":194.8317,"MEAN_ANOMALY":165.2536,"EPHEMERIS_TYPE":0,"CLASSIFICATION_TYPE":"U","NORAD_CAT_ID":65999,"ELEMENT_SET_NO":999,"REV_AT_EPOCH":1924,"BSTAR":9.5803962e-5,"MEAN_MOTION_DOT":-8.0e-7,"MEAN_MOTION_DDOT":0},{"OBJECT_NAME":"HULIANWANG DIGUI-92","OBJECT_ID":"2025-231F","EPOCH":"2026-03-06T19:30:16.290720","MEAN_MOTION":13.29330746,"ECCENTRICITY":6.29e-5,"INCLINATION":50.0045,"RA_OF_ASC_NODE":182.8121,"ARG_OF_PERICENTER":195.9678,"MEAN_ANOMALY":164.1175,"EPHEMERIS_TYPE":0,"CLASSIFICATION_TYPE":"U","NORAD_CAT_ID":66000,"ELEMENT_SET_NO":999,"REV_AT_EPOCH":1927,"BSTAR":0.00011333,"MEAN_MOTION_DOT":-7.1e-7,"MEAN_MOTION_DDOT":0},{"OBJECT_NAME":"HULIANWANG DIGUI-93","OBJECT_ID":"2025-231G","EPOCH":"2026-03-06T19:06:15.842880","MEAN_MOTION":13.29329819,"ECCENTRICITY":6.17e-5,"INCLINATION":50.0013,"RA_OF_ASC_NODE":182.692,"ARG_OF_PERICENTER":196.194,"MEAN_ANOMALY":163.8913,"EPHEMERIS_TYPE":0,"CLASSIFICATION_TYPE":"U","NORAD_CAT_ID":66001,"ELEMENT_SET_NO":999,"REV_AT_EPOCH":1927,"BSTAR":0.00011064,"MEAN_MOTION_DOT":-7.3e-7,"MEAN_MOTION_DDOT":0},{"OBJECT_NAME":"HULIANWANG DIGUI-94","OBJECT_ID":"2025-231H","EPOCH":"2026-03-06T19:18:14.700384","MEAN_MOTION":13.29330992,"ECCENTRICITY":6.34e-5,"INCLINATION":50.0052,"RA_OF_ASC_NODE":182.7803,"ARG_OF_PERICENTER":196.8775,"MEAN_ANOMALY":163.2076,"EPHEMERIS_TYPE":0,"CLASSIFICATION_TYPE":"U","NORAD_CAT_ID":66002,"ELEMENT_SET_NO":999,"REV_AT_EPOCH":1927,"BSTAR":0.0001129,"MEAN_MOTION_DOT":-7.2e-7,"MEAN_MOTION_DDOT":0},{"OBJECT_NAME":"HULIANWANG DIGUI-95","OBJECT_ID":"2025-231J","EPOCH":"2026-03-06T18:54:26.940384","MEAN_MOTION":13.29325885,"ECCENTRICITY":6.35e-5,"INCLINATION":50.0024,"RA_OF_ASC_NODE":182.6636,"ARG_OF_PERICENTER":193.5633,"MEAN_ANOMALY":166.5222,"EPHEMERIS_TYPE":0,"CLASSIFICATION_TYPE":"U","NORAD_CAT_ID":66003,"ELEMENT_SET_NO":999,"REV_AT_EPOCH":1927,"BSTAR":0.00010402,"MEAN_MOTION_DOT":-7.6e-7,"MEAN_MOTION_DDOT":0},{"OBJECT_NAME":"HULIANWANG DIGUI-96","OBJECT_ID":"2025-258A","EPOCH":"2026-03-06T08:38:42.472320","MEAN_MOTION":13.2933155,"ECCENTRICITY":4.006e-5,"INCLINATION":50.0048,"RA_OF_ASC_NODE":304.4314,"ARG_OF_PERICENTER":100.2884,"MEAN_ANOMALY":259.8033,"EPHEMERIS_TYPE":0,"CLASSIFICATION_TYPE":"U","NORAD_CAT_ID":66412,"ELEMENT_SET_NO":999,"REV_AT_EPOCH":1605,"BSTAR":0.00013289135,"MEAN_MOTION_DOT":-6.2e-7,"MEAN_MOTION_DDOT":0}]
